NORAD_CAT_ID,OBJECT_NAME,OBJECT_TYPE,EPOCH,MEAN_MOTION,ECCENTRICITY,INCLINATION,RA_OF_ASC_NODE,ARG_OF_PERICENTER,MEAN_ANOMALY,BSTAR,MEAN_MOTION_DOT,MEAN_MOTION_DDOT,TLE_LINE0,TLE_LINE1,TLE_LINE2,SEMIMAJOR_AXIS,PERIOD,APOGEE,PERIGEE,DECAYED
53851.0,STARLINK-4755,PAYLOAD,2024-04-27 16:01:39,15.0883433,0.0001225,53.2156,111.1203,100.1276,259.9854,-0.00019361,-3.367e-05,0.0,0 STARLINK-4755,1 53851U 22114AK  24118.66781420 -.00003367  00000-0 -19361-3 0  9996,2 53851  53.2156 111.1203 0001225 100.1276 259.9854 15.08834330 90165,6917.898,95.438,540.61,538.915,0.0
53851.0,STARLINK-4755,PAYLOAD,2024-04-28 04:44:45,15.08821895,0.0001411,53.2178,108.7436,103.6408,256.4742,-0.00010833,-2.011e-05,0.0,0 STARLINK-4755,1 53851U 22114AK  24119.19775301 -.00002011  00000-0 -10833-3 0  9996,2 53851  53.2178 108.7436 0001411 103.6408 256.4742 15.08821895 89709,6917.936,95.439,540.777,538.825,0.0
53851.0,STARLINK-4755,PAYLOAD,2024-04-28 06:20:09,15.08822116,0.0001415,53.2178,108.4463,103.7132,256.4018,-0.00010733,-1.995e-05,0.0,0 STARLINK-4755,1 53851U 22114AK  24119.26399323 -.00001995  00000-0 -10733-3 0  9999,2 53851  53.2178 108.4463 0001415 103.7132 256.4018 15.08822116 90250,6917.935,95.439,540.779,538.821,0.0
53851.0,STARLINK-4755,PAYLOAD,2024-04-28 15:52:27,15.08826963,0.0001392,53.2179,106.6625,101.4032,258.7116,-8.9483e-05,-1.711e-05,0.0,0 STARLINK-4755,1 53851U 22114AK  24119.66143177 -.00001711  00000-0 -89483-4 0  9992,2 53851  53.2179 106.6625 0001392 101.4032 258.7116 15.08826963 89772,6917.92,95.438,540.748,538.822,0.0
53851.0,STARLINK-4755,PAYLOAD,2024-04-29 04:35:31,15.08853645,0.000144,53.2177,104.2828,95.95,264.1657,-0.00025187,-4.296e-05,0.0,0 STARLINK-4755,1 53851U 22114AK  24120.19133802 -.00004296  00000-0 -25187-3 0  9997,2 53851  53.2177 104.2828 0001440  95.9500 264.1657 15.08853645 89857,6917.839,95.437,540.7,538.708,0.0
53851.0,STARLINK-4755,PAYLOAD,2024-04-29 09:21:40,15.0885712,0.0001442,53.2181,103.39,94.2967,265.819,-0.00024348,-4.163e-05,0.0,0 STARLINK-4755,1 53851U 22114AK  24120.39005423 -.00004163  00000-0 -24348-3 0  9997,2 53851  53.2181 103.3900 0001442  94.2967 265.8190 15.08857120 90421,6917.828,95.436,540.691,538.696,0.0
53851.0,STARLINK-4755,PAYLOAD,2024-04-29 15:43:14,15.08829665,0.0001415,53.2184,102.2007,99.8593,260.2559,0.00020541,2.982e-05,0.0,0 STARLINK-4755,1 53851U 22114AK  24120.65502357  .00002982  00000-0  20541-3 0  9990,2 53851  53.2184 102.2007 0001415  99.8593 260.2559 15.08829665 89920,6917.912,95.438,540.756,538.798,0.0
53851.0,STARLINK-4755,PAYLOAD,2024-04-30 04:26:18,15.08845669,0.0001118,53.2158,99.8193,86.4063,273.7057,0.00038159,5.791e-05,0.0,0 STARLINK-4755,1 53851U 22114AK  24121.18493437  .00005791  00000-0  38159-3 0  9992,2 53851  53.2158  99.8193 0001118  86.4063 273.7057 15.08845669 90007,6917.863,95.437,540.501,538.955,0.0
53851.0,STARLINK-4755,PAYLOAD,2024-04-30 06:01:41,15.08852161,0.0001169,53.2154,99.5223,86.7517,273.3609,0.00048436,7.432e-05,0.0,0 STARLINK-4755,1 53851U 22114AK  24121.25117664  .00007432  00000-0  48436-3 0  9998,2 53851  53.2154  99.5223 0001169  86.7517 273.3609 15.08852161 90551,6917.843,95.437,540.517,538.9,0.0
53851.0,STARLINK-4755,PAYLOAD,2024-04-30 15:34:00,15.08856949,0.000117,53.2155,97.7384,91.9931,268.1195,0.00042943,6.556e-05,0.0,0 STARLINK-4755,1 53851U 22114AK  24121.64861264  .00006556  00000-0  42943-3 0  9996,2 53851  53.2155  97.7384 0001170  91.9931 268.1195 15.08856949 90617,6917.829,95.436,540.503,538.884,0.0
53851.0,STARLINK-4755,PAYLOAD,2024-05-01 04:17:06,15.08829939,0.0001293,53.2154,95.3593,97.3849,262.729,-0.00022527,-3.87e-05,0.0,0 STARLINK-4755,1 53851U 22114AK  24122.17854478 -.00003870  00000-0 -22527-3 0  9998,2 53851  53.2154  95.3593 0001293  97.3849 262.7290 15.08829939 90150,6917.911,95.438,540.671,538.882,0.0
53851.0,STARLINK-4755,PAYLOAD,2024-05-01 05:52:29,15.08833669,0.0001343,53.2156,95.0621,97.1962,262.9183,-0.00012599,-2.292e-05,0.0,0 STARLINK-4755,1 53851U 22114AK  24122.24478437 -.00002292  00000-0 -12599-3 0  9998,2 53851  53.2156  95.0621 0001343  97.1962 262.9183 15.08833669 90700,6917.9,95.438,540.694,538.836,0.0
53851.0,STARLINK-4755,PAYLOAD,2024-05-01 15:24:48,15.08837143,0.0001382,53.2158,93.2785,101.2105,258.9043,5.3545e-05,5.64e-06,0.0,0 STARLINK-4755,1 53851U 22114AK  24122.64222446  .00000564  00000-0  53545-4 0  9994,2 53851  53.2158  93.2785 0001382 101.2105 258.9043 15.08837143 90220,6917.889,95.438,540.71,538.798,0.0
53851.0,STARLINK-4755,PAYLOAD,2024-05-01 21:46:20,15.0883914,0.0001434,53.2161,92.0889,104.3562,255.7589,0.00055318,8.527e-05,0.0,0 STARLINK-4755,1 53851U 22114AK  24122.90718718  .00008527  00000-0  55318-3 0  9991,2 53851  53.2161  92.0889 0001434 104.3562 255.7589 15.08839140 90808,6917.883,95.438,540.74,538.756,0.0
53851.0,STARLINK-4755,PAYLOAD,2024-05-02 07:18:39,15.0884719,0.0001427,53.2158,90.3049,104.7767,255.3383,0.0010387,0.00016285,0.0,0 STARLINK-4755,1 53851U 22114AK  24123.30462939  .00016285  00000-0  10387-2 0  9993,2 53851  53.2158  90.3049 0001427 104.7767 255.3383 15.08847190 90864,6917.858,95.437,540.711,538.736,0.0
53851.0,STARLINK-4755,PAYLOAD,2024-05-03 03:58:40,15.08850297,0.0001592,53.2173,86.439,105.5929,254.5239,0.00037721,5.722e-05,0.0,0 STARLINK-4755,1 53851U 22114AK  24124.16574577  .00005722  00000-0  37721-3 0  9996,2 53851  53.2173  86.4390 0001592 105.5929 254.5239 15.08850297 90456,6917.849,95.437,540.815,538.613,0.0
53851.0,STARLINK-4755,PAYLOAD,2024-05-03 21:27:55,15.08843909,0.0001482,53.2159,83.1664,100.4894,259.6265,0.00022467,3.29e-05,0.0,0 STARLINK-4755,1 53851U 22114AK  24124.89438777  .00003290  00000-0  22467-3 0  9996,2 53851  53.2159  83.1664 0001482 100.4894 259.6265 15.08843909 90560,6917.868,95.437,540.759,538.708,0.0
53851.0,STARLINK-4755,PAYLOAD,2024-05-04 03:49:28,15.08824372,0.0001414,53.2169,81.9769,93.1855,266.9299,-0.00020988,-3.625e-05,0.0,0 STARLINK-4755,1 53851U 22114AK  24125.15935595 -.00003625  00000-0 -20988-3 0  9996,2 53851  53.2169  81.9769 0001414  93.1855 266.9299 15.08824372 90609,6917.928,95.439,540.771,538.815,0.0
53851.0,STARLINK-4755,PAYLOAD,2024-05-05 03:40:15,15.08838917,0.0001232,53.2165,77.5177,84.1528,275.9605,0.0004314,6.584e-05,0.0,0 STARLINK-4755,1 53851U 22114AK  24126.15296098  .00006584  00000-0  43140-3 0  9995,2 53851  53.2165  77.5177 0001232  84.1528 275.9605 15.08838917 90751,6917.884,95.438,540.601,538.896,0.0
53851.0,STARLINK-4755,PAYLOAD,2024-05-05 06:51:02,15.08842062,0.0001317,53.2171,76.9221,82.9686,277.1456,0.00050361,7.737e-05,0.0,0 STARLINK-4755,1 53851U 22114AK  24126.28544120  .00007737  00000-0  50361-3 0  9995,2 53851  53.2171  76.9221 0001317  82.9686 277.1456 15.08842062 91313,6917.874,95.437,540.65,538.828,0.0
53851.0,STARLINK-4755,PAYLOAD,2024-05-06 03:31:02,15.08867095,0.0001332,53.2171,73.0569,86.1862,273.9282,0.00091075,0.00014247,0.0,0 STARLINK-4755,1 53851U 22114AK  24127.14655420  .00014247  00000-0  91075-3 0  9998,2 53851  53.2171  73.0569 0001332  86.1862 273.9282 15.08867095 90903,6917.798,95.436,540.584,538.741,0.0
53851.0,STARLINK-4755,PAYLOAD,2024-05-07 04:57:11,15.08852423,0.0001283,53.217,68.3003,89.7721,270.3418,9.5073e-05,1.226e-05,0.0,0 STARLINK-4755,1 53851U 22114AK  24128.20638721  .00001226  00000-0  95073-4 0  9997,2 53851  53.2170  68.3003 0001283  89.7721 270.3418 15.08852423 91069,6917.842,95.437,540.595,538.82,0.0
53851.0,STARLINK-4755,PAYLOAD,2024-05-07 12:54:07,15.08849828,0.0001293,53.2172,66.8136,88.524,271.59,4.409e-05,4.14e-06,0.0,0 STARLINK-4755,1 53851U 22114AK  24128.53758679  .00000414  00000-0  44090-4 0  9999,2 53851  53.2172  66.8136 0001293  88.5240 271.5900 15.08849828 91654,6917.85,95.437,540.61,538.821,0.0
53851.0,STARLINK-4755,PAYLOAD,2024-05-07 19:15:40,15.08845427,0.00019,53.2171,65.6257,88.1656,271.9554,2.322e-06,-2.51e-06,0.0,0 STARLINK-4755,1 53851U 22114AK  24128.80255033 -.00000251  00000-0  23220-5 0  9998,2 53851  53.2171  65.6257 0001900  88.1656 271.9554 15.08845427 91151,6917.864,95.437,541.043,538.414,0.0
53851.0,STARLINK-4755,PAYLOAD,2024-05-08 03:12:36,15.08834833,0.0001282,53.217,64.1375,90.0261,270.0878,-0.00016259,-2.874e-05,0.0,0 STARLINK-4755,1 53851U 22114AK  24129.13375479 -.00002874  00000-0 -16259-3 0  9998,2 53851  53.2170  64.1375 0001282  90.0261 270.0878 15.08834833 91206,6917.896,95.438,540.648,538.874,0.0
53851.0,STARLINK-4755,PAYLOAD,2024-05-08 12:44:54,15.08850154,0.0001305,53.2183,62.352,81.3385,278.7755,8.8501e-05,1.121e-05,0.0,0 STARLINK-4755,1 53851U 22114AK  24129.53118931  .00001121  00000-0  88501-4 0  9992,2 53851  53.2183  62.3520 0001305  81.3385 278.7755 15.08850154 91267,6917.849,95.437,540.617,538.812,0.0
53851.0,STARLINK-4755,PAYLOAD,2024-05-09 04:38:46,15.08840449,0.0001325,53.2173,59.3783,88.173,271.9413,0.00011386,1.525e-05,0.0,0 STARLINK-4755,1 53851U 22114AK  24130.19359515  .00001525  00000-0  11386-3 0  9995,2 53851  53.2173  59.3783 0001325  88.1730 271.9413 15.08840449 91367,6917.879,95.438,540.661,538.827,0.0
53851.0,STARLINK-4755,PAYLOAD,2024-05-09 12:35:41,15.08851345,0.0001316,53.2177,57.8918,89.0657,271.0486,0.0002805,4.18e-05,0.0,0 STARLINK-4755,1 53851U 22114AK  24130.52479016  .00004180  00000-0  28050-3 0  9997,2 53851  53.2177  57.8918 0001316  89.0657 271.0486 15.08851345 91955,6917.846,95.437,540.621,538.8,0.0
53851.0,STARLINK-4755,PAYLOAD,2024-05-10 01:18:47,15.08843538,0.0001464,53.2188,55.5112,89.2411,270.8749,0.00025551,3.781e-05,0.0,0 STARLINK-4755,1 53851U 22114AK  24131.05471723  .00003781  00000-0  25551-3 0  9992,2 53851  53.2188  55.5112 0001464  89.2411 270.8749 15.08843538 91495,6917.87,95.437,540.747,538.722,0.0
53851.0,STARLINK-4755,PAYLOAD,2024-05-10 12:26:29,15.08858776,0.0001599,53.2194,53.432,86.4308,273.6867,0.00050667,7.789e-05,0.0,0 STARLINK-4755,1 53851U 22114AK  24131.51839185  .00007789  00000-0  50667-3 0  9991,2 53851  53.2194  53.4320 0001599  86.4308 273.6867 15.08858776 92104,6917.823,95.436,540.794,538.582,0.0
